ONEWEB-0271             
1 48989U 21060Y   25172.64127755  .00000187  00000+0  45661-3 0  9991
2 48989  87.9047 300.6283 0002086 107.0427 253.0933 13.16595346192228
ONEWEB-0272             
1 48990U 21060Z   25172.58743436  .00000098  00000+0  22339-3 0  9994
2 48990  87.9048 300.6711 0002020 105.2706 254.8648 13.16593419193463
ONEWEB-0273             
1 48991U 21060AA  25172.60960310  .00000043  00000+0  79055-4 0  9998
2 48991  87.9048 300.6514 0002098 101.4521 258.6845 13.16593518192148
ONEWEB-0274             
1 48992U 21060AB  25172.78693112  .00000079  00000+0  17363-3 0  9993
2 48992  87.9041 300.6513 0001684 111.2374 248.8937 13.16594248192207
ONEWEB-0275             
1 48993U 21060AC  25172.77585429 -.00000094  00000+0 -27909-3 0  9990
2 48993  87.9048 300.6126 0001920 103.9435 256.1909 13.16595196192130
ONEWEB-0276             
1 48994U 21060AD  25172.80909878  .00000046  00000+0  87884-4 0  9997
2 48994  87.9048 300.6032 0002183 102.1099 258.0276 13.16593751192151
ONEWEB-0277             
1 48995U 21060AE  25172.36577357  .00000016  00000+0  78773-5 0  9997
2 48995  87.9046 300.7272 0002174 109.8609 250.2757 13.16593187192081
ONEWEB-0278             
1 48996U 21060AF  25172.58427152  .00000069  00000+0  14676-3 0  9997
2 48996  87.9050 300.6450 0002025  94.3370 265.7992 13.16593910192246
ONEWEB-0279             
1 48997U 21060AG  25172.59218523  .00000092  00000+0  20700-3 0  9990
2 48997  87.9048 300.6391 0002054 110.5495 249.5856 13.16594698192174
ONEWEB-0280             
1 48998U 21060AH  25172.60723022 -.00000009  00000+0 -57530-4 0  9990
2 48998  87.9049 300.6427 0002302  99.8154 260.3237 13.16593833192111
ONEWEB-0281             
1 48999U 21060AJ  25172.76477270  .00000098  00000+0  22200-3 0  9990
2 48999  87.9047 300.6086 0001714 102.0221 258.1102 13.16594567192200
ONEWEB-0282             
1 49000U 21060AK  25172.33886641 -.00000016  00000+0 -75472-4 0  9995
2 49000  87.9041 300.7073 0002109 102.0943 258.0425 13.16592948192124
ONEWEB-0283             
1 49001U 21060AL  25172.78376824 -.00000017  00000+0 -78063-4 0  9992
2 49001  87.9040 300.6222 0002027 106.0999 254.0356 13.16593254192190
ONEWEB-0284             
1 49002U 21060AM  25172.77742719 -.00000103  00000+0 -30393-3 0  9991
2 49002  87.9055 300.5920 0002092  92.4207 267.7164 13.16592818192174
ONEWEB-0285             
1 49075U 21075A   25173.14465471  .00000451  00000+0  12182-2 0  9995
2 49075  87.8881  62.2695 0001924  78.6426 281.4919 13.12442195188964
ONEWEB-0286             
1 49076U 21075B   25172.13545505  .00000358  00000+0  95835-3 0  9994
2 49076  87.8904  62.4896 0001776  74.0706 286.0618 13.12443891187209
ONEWEB-0287             
1 49077U 21075C   25172.16609354  .00000056  00000+0  11137-3 0  9999
2 49077  87.9068  77.7358 0001901  65.8422 294.2908 13.17648780186084
ONEWEB-0288             
1 49078U 21075D   25172.41619301 -.00000410  00000+0 -11756-2 0  9993
2 49078  87.8877  62.4077 0001956  74.4966 285.6378 13.12442513187863
ONEWEB-0289             
1 49079U 21075E   25173.18195750  .00000060  00000+0  12033-3 0  9995
2 49079  87.9068  77.5654 0002466  76.8891 283.2516 13.17647631187765
ONEWEB-0290             
1 49080U 21075F   25173.01321815  .00000061  00000+0  12401-3 0  9992
2 49080  87.9066  77.5541 0002588  82.8636 277.2790 13.17648774187169
ONEWEB-0291             
1 49081U 21075G   25173.14989981  .00000026  00000+0  33170-4 0  9999
2 49081  87.9062  77.5300 0002052  72.1859 287.9496 13.17648654187184
ONEWEB-0293             
1 49082U 21075H   25173.02333978  .00000034  00000+0  55125-4 0  9999
2 49082  87.9069  77.5879 0002084  78.3893 281.7472 13.17648923187189
ONEWEB-0294             
1 49083U 21075J   25172.65139332 -.00000376  00000+0 -10795-2 0  9999
2 49083  87.8876  62.3600 0002388  75.9699 284.1695 13.12443022187286
ONEWEB-0295             
1 49084U 21075K   25173.17436417  .00000118  00000+0  27002-3 0  9994
2 49084  87.9082  77.5525 0002028  68.9978 291.1370 13.17649598187148
ONEWEB-0296             
1 49085U 21075L   25173.08936695 -.00000098  00000+0 -30754-3 0  9995
2 49085  87.8879  62.2818 0002195  65.4813 294.6545 13.12442893188331
ONEWEB-0297             
1 49086U 21075M   25172.43403827  .00000078  00000+0  18046-3 0  9996
2 49086  87.8889  62.4465 0001790  76.2786 283.8541 13.12443888187860
ONEWEB-0298             
1 49087U 21075N   25173.02683826  .00000039  00000+0  66882-4 0  9991
2 49087  87.9068  77.5853 0001739  75.1029 285.0295 13.17651166187180
ONEWEB-0299             
1 49088U 21075P   25173.18026174  .00000039  00000+0  67456-4 0  9994
2 49088  87.9064  77.5079 0001786  73.5921 286.5406 13.17647714187164
ONEWEB-0300             
1 49089U 21075Q   25172.65463850 -.00000250  00000+0 -73038-3 0  9991
2 49089  87.8878  62.3581 0001582  85.7834 274.3475 13.12443083187911
ONEWEB-0301             
1 49090U 21075R   25172.94336412 -.00000307  00000+0 -88769-3 0  9998
2 49090  87.8879  62.3068 0001542  90.2109 269.9196 13.12441687187318
ONEWEB-0302             
1 49091U 21075S   25172.93038837  .00000036  00000+0  63972-4 0  9995
2 49091  87.8879  62.3106 0002206  74.7814 285.3558 13.12440070187296
ONEWEB-0304             
1 49092U 21075T   25172.16778943  .00000041  00000+0  72687-4 0  9999
2 49092  87.9067  77.7399 0001923  73.4291 286.7052 13.17649314186033
ONEWEB-0305             
1 49093U 21075U   25172.46477524 -.00000045  00000+0 -14896-3 0  9997
2 49093  87.9065  77.6578 0001856  64.8901 295.2423 13.17650282186108
ONEWEB-0308             
1 49094U 21075V   25172.92390583  .00000238  00000+0  62503-3 0  9998
2 49094  87.8876  62.3068 0001844  80.2790 279.8546 13.12441038187307
ONEWEB-0309             
1 49095U 21075W   25173.15158823  .00000067  00000+0  14029-3 0  9994
2 49095  87.9068  77.5375 0002414  75.2737 284.8662 13.17651631187155
ONEWEB-0310             
1 49096U 21075X   25173.09097103 -.00000159  00000+0 -47746-3 0  9997
2 49096  87.8888  62.3157 0001991  77.8192 282.3159 13.12440834188956
ONEWEB-0311             
1 49097U 21075Y   25172.70270484 -.00000242  00000+0 -65777-3 0  9997
2 49097  87.9068  77.6284 0001780  66.3120 293.8198 13.17648616186151
ONEWEB-0312             
1 49098U 21075Z   25173.17351639  .00000050  00000+0  96458-4 0  9998
2 49098  87.9069  77.5653 0002104  68.9925 291.1431 13.17647769187176
ONEWEB-0313             
1 49099U 21075AA  25173.17843714 -.00000024  00000+0 -95316-4 0  9994
2 49099  87.9066  77.5801 0001803  77.5009 282.6324 13.17647023187183
ONEWEB-0314             
1 49100U 21075AB  25172.46140007 -.00000041  00000+0 -13976-3 0  9993
2 49100  87.9066  77.6543 0002089  66.6960 293.4391 13.17650879186065
ONEWEB-0315             
1 49101U 21075AC  25172.15017750  .00000373  00000+0  10016-2 0  9995
2 49101  87.8876  62.4509 0001542  70.8467 289.2828 13.12440962187817
ONEWEB-0316             
1 49102U 21075AD  25172.89787790  .00002165  00000+0  54553-2 0  9990
2 49102  87.9143  47.0634 0001556  79.5213 280.6095 13.18702616190733
ONEWEB-0317             
1 49103U 21075AE  25172.44865678  .00000345  00000+0  92472-3 0  9995
2 49103  87.8879  62.4066 0002649  85.8164 274.3268 13.12443527187878
ONEWEB-0318             
1 49104U 21075AF  25173.04644630  .00003341  00000+0  84351-2 0  9991
2 49104  87.9143  47.0194 0001655  76.5092 283.6224 13.18716016190701
ONEWEB-0319             
1 49105U 21075AG  25172.17285473 -.00000047  00000+0 -15420-3 0  9995
2 49105  87.9068  77.7589 0001728  64.9511 295.1800 13.17648396186060
ONEWEB-0323             
1 49106U 21075AH  25173.12504028  .00000087  00000+0  20528-3 0  9999
2 49106  87.8878  62.2574 0001615  54.5234 305.6045 13.12443307188323
ONEWEB-0329             
1 49107U 21075AJ  25173.16845670  .00000014  00000+0  41403-5 0  9992
2 49107  87.9067  77.5651 0001894  71.0095 289.1241 13.17648073187165
ONEWEB-0330             
1 49108U 21075AK  25173.01826119 -.00000010  00000+0 -58211-4 0  9996
2 49108  87.9069  77.5977 0002079  72.7700 287.3659 13.17650833187188
ONEWEB-0292             
1 49186U 21083A   25172.84553482  .00000135  00000+0  33467-3 0  9992
2 49186  87.8967  31.8707 0001650  80.9188 279.2128 13.13468542183625
ONEWEB-0303             
1 49187U 21083B   25173.11915396  .00003546  00000+0  89547-2 0  9998
2 49187  87.9142  47.0077 0001806  75.4113 284.7220 13.18716997183800
ONEWEB-0306             
1 49188U 21083C   25172.88203175  .00004038  00000+0  10199-1 0  9990
2 49188  87.9146  47.0391 0001991  84.7621 275.3738 13.18725014182535
ONEWEB-0307             
1 49189U 21083D   25172.83961243  .00000212  00000+0  54525-3 0  9996
2 49189  87.8970  31.8759 0002146  84.8476 275.2898 13.13468442183622
ONEWEB-0320             
1 49190U 21083E   25173.04012149  .00004793  00000+0  12111-1 0  9995
2 49190  87.9143  47.0364 0001924  80.4058 279.7291 13.18731952183797
ONEWEB-0321             
1 49191U 21083F   25172.75012143  .00000092  00000+0  19494-3 0  9998
2 49191  87.9261 346.2264 0002128  97.7346 262.4029 13.20772706189250
ONEWEB-0322             
1 49192U 21083G   25172.83538399  .00000312  00000+0  81973-3 0  9990
2 49192  87.8968  31.8665 0002123  91.4815 268.6557 13.13469231183619
ONEWEB-0324             
1 49193U 21083H   25173.10182873  .00000915  00000+0  22868-2 0  9990
2 49193  87.9146  47.0027 0001883  78.1449 281.9894 13.18688453183826
ONEWEB-0325             
1 49194U 21083J   25173.10648924  .00004945  00000+0  12495-1 0  9996
2 49194  87.9141  47.0193 0001936  84.4034 275.7318 13.18729301183836
ONEWEB-0326             
1 49195U 21083K   25172.58978528  .00001216  00000+0  30498-2 0  9996
2 49195  87.9142  47.1121 0001544  73.4844 286.6458 13.18696273183750
ONEWEB-0327             
1 49196U 21083L   25173.12061618  .00002920  00000+0  73687-2 0  9991
2 49196  87.9146  47.0339 0002046  83.7797 276.3568 13.18717128183845
